{
  "norad_id": 59854,
  "name": "STARLINK-31891",
  "history": [
    {
      "epoch": "2026-03-28T14:04:09.882336Z",
      "apogee_km": 483.6773147269141,
      "perigee_km": 482.42995026992503,
      "latitude_deg": 3.411198927873668e-05,
      "longitude_deg": 130.8644139648025,
      "height_km": 482.8515730509614,
      "semi_major_axis_km": 6861.190632498419,
      "eccentricity": 9.09e-05,
      "inclination_deg": 43.0003,
      "raan_deg": 167.9101,
      "arg_perigee_deg": 268.012,
      "mean_anomaly_deg": 92.0628,
      "mean_motion_rev_day": 15.27578485
    },
    {
      "epoch": "2026-03-30T05:18:05.402304Z",
      "apogee_km": 483.81718689110403,
      "perigee_km": 482.3776999048796,
      "latitude_deg": -5.266920493228237e-05,
      "longitude_deg": -108.45741581458728,
      "height_km": 482.8181008731368,
      "semi_major_axis_km": 6861.2344433979915,
      "eccentricity": 0.0001049,
      "inclination_deg": 43.002,
      "raan_deg": 158.6809,
      "arg_perigee_deg": 274.4609,
      "mean_anomaly_deg": 85.6122,
      "mean_motion_rev_day": 15.27563854
    },
    {
      "epoch": "2026-03-30T05:18:05.403168Z",
      "apogee_km": 483.8168438293824,
      "perigee_km": 482.37804296660124,
      "latitude_deg": -5.660018588088864e-05,
      "longitude_deg": -108.45732361629874,
      "height_km": 482.818127553799,
      "semi_major_axis_km": 6861.2344433979915,
      "eccentricity": 0.00010485,
      "inclination_deg": 43.002,
      "raan_deg": 158.681,
      "arg_perigee_deg": 274.4609,
      "mean_anomaly_deg": 85.6122,
      "mean_motion_rev_day": 15.27563854
    },
    {
      "epoch": "2026-03-30T13:08:51.825984Z",
      "apogee_km": 483.8091750088579,
      "perigee_km": 482.3367593499015,
      "latitude_deg": 1.9347474952115485e-05,
      "longitude_deg": 131.67999619316444,
      "height_km": 482.8259569893514,
      "semi_major_axis_km": 6861.209967179379,
      "eccentricity": 0.0001073,
      "inclination_deg": 43.0015,
      "raan_deg": 156.8339,
      "arg_perigee_deg": 271.8372,
      "mean_anomaly_deg": 88.2357,
      "mean_motion_rev_day": 15.27572028
    },
    {
      "epoch": "2026-03-30T20:59:38.713632Z",
      "apogee_km": 483.81132301327125,
      "perigee_km": 482.33931852197384,
      "latitude_deg": -3.10676047092218e-06,
      "longitude_deg": 11.815468966889485,
      "height_km": 482.7101574823033,
      "semi_major_axis_km": 6861.212320767622,
      "eccentricity": 0.00010727,
      "inclination_deg": 43.0055,
      "raan_deg": 154.987,
      "arg_perigee_deg": 281.1402,
      "mean_anomaly_deg": 78.9329,
      "mean_motion_rev_day": 15.27571242
    },
    {
      "epoch": "2026-03-31T12:41:12.166656Z",
      "apogee_km": 483.7278003812344,
      "perigee_km": 482.3511739308515,
      "latitude_deg": 2.0984872204364408e-05,
      "longitude_deg": 132.0898347017194,
      "height_km": 482.797343864786,
      "semi_major_axis_km": 6861.176487156043,
      "eccentricity": 0.00010032,
      "inclination_deg": 43.0011,
      "raan_deg": 151.2952,
      "arg_perigee_deg": 271.5508,
      "mean_anomaly_deg": 88.5229,
      "mean_motion_rev_day": 15.27583209
    },
    {
      "epoch": "2026-04-01T20:04:20.451648Z",
      "apogee_km": 483.8216982401573,
      "perigee_km": 482.35202408909663,
      "latitude_deg": 4.904784220001171e-06,
      "longitude_deg": 12.631436230214204,
      "height_km": 482.84238824731796,
      "semi_major_axis_km": 6861.223861164627,
      "eccentricity": 0.0001071,
      "inclination_deg": 43.0012,
      "raan_deg": 143.9103,
      "arg_perigee_deg": 271.6401,
      "mean_anomaly_deg": 88.4328,
      "mean_motion_rev_day": 15.27567388
    },
    {
      "epoch": "2026-04-02T11:45:53.240256Z",
      "apogee_km": 483.6556859103466,
      "perigee_km": 482.32352956818886,
      "latitude_deg": -2.6520458565045565e-05,
      "longitude_deg": 132.90721839963118,
      "height_km": 482.76964001045843,
      "semi_major_axis_km": 6861.1266077392675,
      "eccentricity": 9.708e-05,
      "inclination_deg": 43.0017,
      "raan_deg": 140.2172,
      "arg_perigee_deg": 269.6982,
      "mean_anomaly_deg": 90.3758,
      "mean_motion_rev_day": 15.27599867
    },
    {
      "epoch": "2026-04-03T11:18:13.758912Z",
      "apogee_km": 483.75873702303215,
      "perigee_km": 482.28550893614647,
      "latitude_deg": -2.0178200515500775e-05,
      "longitude_deg": 133.31231735421775,
      "height_km": 482.72491901673715,
      "semi_major_axis_km": 6861.1591229795895,
      "eccentricity": 0.00010736,
      "inclination_deg": 43.0067,
      "raan_deg": 134.6745,
      "arg_perigee_deg": 275.7955,
      "mean_anomaly_deg": 84.2774,
      "mean_motion_rev_day": 15.27589008
    }
  ]
}